     3.02           N: GNSS NAV DATA    E: GALILEO          RINEX VERSION / TYPE
ssrcrin-10.1.1x                         20160105 084900 LCL PGM / RUN BY / DATE 
                                                            END OF HEADER       
E11 2016 01 05 20 50 00 1.422851346433E-05 1.095656898542E-11 0.000000000000E+00
     2.900000000000E+01-6.118750000000E+01 2.788687588603E-09 2.412701614501E+00
    -2.818182110786E-06 1.334871631116E-04 1.090392470360E-05 5.440623504639E+03
     2.478000000000E+05 4.470348358154E-08-2.692674329380E-01-9.313225746155E-09
     9.680069828620E-01 1.102500000000E+02-5.983163841304E-01-5.336650864358E-09
     4.553761111000E-10 2.580000000000E+02 1.878000000000E+03
     3.600000000000E+00 8.000000000000E+00-8.847564458847E-09 0.000000000000E+00
     2.485400000000E+05
E11 2016 01 05 21 00 00 1.423404319212E-05 1.095656898542E-11 0.000000000000E+00
     3.000000000000E+01-6.021875000000E+01 2.795473585553E-09 2.487394959561E+00
    -2.780929207802E-06 1.336084678769E-04 1.089274883270E-05 5.440623245239E+03
     2.484000000000E+05 5.029141902924E-08-2.692705986927E-01-7.450580596924E-09
     9.680072535019E-01 1.105312500000E+02-5.986250642339E-01-5.340222441700E-09
     4.514473760239E-10 5.130000000000E+02 1.878000000000E+03
     3.600000000000E+00 6.500000000000E+01-8.847564458847E-09-9.778887033463E-09
     2.490660000000E+05
E11 2016 01 05 21 00 00 1.423404319212E-05 1.095656898542E-11 0.000000000000E+00
     3.000000000000E+01-6.021875000000E+01 2.795473585553E-09 2.487394959561E+00
    -2.780929207802E-06 1.336084678769E-04 1.089274883270E-05 5.440623245239E+03
     2.484000000000E+05 5.029141902924E-08-2.692705986927E-01-7.450580596924E-09
     9.680072535019E-01 1.105312500000E+02-5.986250642339E-01-5.340222441700E-09
     4.514473760239E-10 5.130000000000E+02 1.878000000000E+03
     3.600000000000E+00 6.500000000000E+01-8.847564458847E-09-9.778887033463E-09
     2.490870000000E+05
E11 2016 01 05 21 00 00 1.423404319212E-05 1.095656898542E-11 0.000000000000E+00
     3.000000000000E+01-6.021875000000E+01 2.795473585553E-09 2.487394959561E+00
    -2.780929207802E-06 1.336084678769E-04 1.089274883270E-05 5.440623245239E+03
     2.484000000000E+05 5.029141902924E-08-2.692705986927E-01-7.450580596924E-09
     9.680072535019E-01 1.105312500000E+02-5.986250642339E-01-5.340222441700E-09
     4.514473760239E-10 5.130000000000E+02 1.878000000000E+03
     3.600000000000E+00 6.500000000000E+01-8.847564458847E-09-9.778887033463E-09
     2.490960000000E+05
E11 2016 01 05 21 00 00 1.423485809937E-05 1.095656898542E-11 0.000000000000E+00
     3.000000000000E+01-6.021875000000E+01 2.795473585553E-09 2.487394959561E+00
    -2.780929207802E-06 1.336084678769E-04 1.089274883270E-05 5.440623245239E+03
     2.484000000000E+05 5.029141902924E-08-2.692705986927E-01-7.450580596924E-09
     9.680072535019E-01 1.105312500000E+02-5.986250642339E-01-5.340222441700E-09
     4.514473760239E-10 2.580000000000E+02 1.878000000000E+03
     3.600000000000E+00 8.000000000000E+00-8.847564458847E-09 0.000000000000E+00
     2.491400000000E+05
E11 2016 01 05 21 10 00 1.424056245014E-05 1.095656898542E-11 0.000000000000E+00
     3.100000000000E+01-5.890625000000E+01 2.802616740237E-09 2.562098062285E+00
    -2.725049853325E-06 1.337737776339E-04 1.088529825211E-05 5.440622901917E+03
     2.490000000000E+05 5.587935447693E-08-2.692737790766E-01-3.725290298462E-09
     9.680075212159E-01 1.107187500000E+02-5.989434961493E-01-5.342722545839E-09
     4.489472718845E-10 5.130000000000E+02 1.878000000000E+03
     3.600000000000E+00 6.500000000000E+01-8.847564458847E-09-9.778887033463E-09
     2.496660000000E+05
E11 2016 01 05 21 10 00 1.424056245014E-05 1.095656898542E-11 0.000000000000E+00
     3.100000000000E+01-5.890625000000E+01 2.802616740237E-09 2.562098062285E+00
    -2.725049853325E-06 1.337737776339E-04 1.088529825211E-05 5.440622901917E+03
     2.490000000000E+05 5.587935447693E-08-2.692737790766E-01-3.725290298462E-09
     9.680075212159E-01 1.107187500000E+02-5.989434961493E-01-5.342722545839E-09
     4.489472718845E-10 5.130000000000E+02 1.878000000000E+03
     3.600000000000E+00 6.500000000000E+01-8.847564458847E-09-9.778887033463E-09
     2.496870000000E+05
E11 2016 01 05 21 10 00 1.424056245014E-05 1.095656898542E-11 0.000000000000E+00
     3.100000000000E+01-5.890625000000E+01 2.802616740237E-09 2.562098062285E+00
    -2.725049853325E-06 1.337737776339E-04 1.088529825211E-05 5.440622901917E+03
     2.490000000000E+05 5.587935447693E-08-2.692737790766E-01-3.725290298462E-09
     9.680075212159E-01 1.107187500000E+02-5.989434961493E-01-5.342722545839E-09
     4.489472718845E-10 5.130000000000E+02 1.878000000000E+03
     3.600000000000E+00 6.500000000000E+01-8.847564458847E-09-9.778887033463E-09
     2.496960000000E+05
E11 2016 01 05 21 10 00 1.424137735739E-05 1.095656898542E-11 0.000000000000E+00
     3.100000000000E+01-5.890625000000E+01 2.802616740237E-09 2.562098062285E+00
    -2.725049853325E-06 1.337737776339E-04 1.088529825211E-05 5.440622901917E+03
     2.490000000000E+05 5.587935447693E-08-2.692737790766E-01-3.725290298462E-09
     9.680075212159E-01 1.107187500000E+02-5.989434961493E-01-5.342722545839E-09
     4.489472718845E-10 2.580000000000E+02 1.878000000000E+03
     3.600000000000E+00 8.000000000000E+00-8.847564458847E-09 0.000000000000E+00
     2.497400000000E+05
E11 2016 01 05 21 20 00 1.424737274647E-05 1.095656898542E-11 0.000000000000E+00
     3.200000000000E+01-5.728125000000E+01 2.811188525857E-09 2.636763123288E+00
    -2.657994627953E-06 1.339801819995E-04 1.088716089725E-05 5.440622484207E+03
     2.496000000000E+05 5.960464477539E-08-2.692769462942E-01 1.862645149231E-09
     9.680077830782E-01 1.106875000000E+02-5.992238907317E-01-5.347008438650E-09
     4.457328522767E-10 5.130000000000E+02 1.878000000000E+03
     3.600000000000E+00 6.500000000000E+01-8.847564458847E-09-9.778887033463E-09
     2.502660000000E+05
E11 2016 01 05 21 20 00 1.424737274647E-05 1.095656898542E-11 0.000000000000E+00
     3.200000000000E+01-5.728125000000E+01 2.811188525857E-09 2.636763123288E+00
    -2.657994627953E-06 1.339801819995E-04 1.088716089725E-05 5.440622484207E+03
     2.496000000000E+05 5.960464477539E-08-2.692769462942E-01 1.862645149231E-09
     9.680077830782E-01 1.106875000000E+02-5.992238907317E-01-5.347008438650E-09
     4.457328522767E-10 5.130000000000E+02 1.878000000000E+03
     3.600000000000E+00 6.500000000000E+01-8.847564458847E-09-9.778887033463E-09
     2.502870000000E+05
E11 2016 01 05 21 20 00 1.424737274647E-05 1.095656898542E-11 0.000000000000E+00
     3.200000000000E+01-5.728125000000E+01 2.811188525857E-09 2.636763123288E+00
    -2.657994627953E-06 1.339801819995E-04 1.088716089725E-05 5.440622484207E+03
     2.496000000000E+05 5.960464477539E-08-2.692769462942E-01 1.862645149231E-09
     9.680077830782E-01 1.106875000000E+02-5.992238907317E-01-5.347008438650E-09
     4.457328522767E-10 5.130000000000E+02 1.878000000000E+03
     3.600000000000E+00 6.500000000000E+01-8.847564458847E-09-9.778887033463E-09
     2.502960000000E+05
E11 2016 01 05 21 20 00 1.424818765372E-05 1.095656898542E-11 0.000000000000E+00
     3.200000000000E+01-5.728125000000E+01 2.811188525857E-09 2.636763123288E+00
    -2.657994627953E-06 1.339801819995E-04 1.088716089725E-05 5.440622484207E+03
     2.496000000000E+05 5.960464477539E-08-2.692769462942E-01 1.862645149231E-09
     9.680077830782E-01 1.106875000000E+02-5.992238907317E-01-5.347008438650E-09
     4.457328522767E-10 2.580000000000E+02 1.878000000000E+03
     3.600000000000E+00 8.000000000000E+00-8.847564458847E-09 0.000000000000E+00
     2.503400000000E+05
E11 2016 01 05 21 30 00 1.425412483513E-05 1.095656898542E-11 0.000000000000E+00
     3.300000000000E+01-5.546875000000E+01 2.820474626946E-09 2.711326062368E+00
    -2.577900886536E-06 1.342159230262E-04 1.090019941330E-05 5.440622009277E+03
     2.502000000000E+05 6.332993507385E-08-2.692801149748E-01 7.450580596924E-09
     9.680080376260E-01 1.103437500000E+02-5.994021575401E-01-5.351651489194E-09
     4.425184326689E-10 5.130000000000E+02 1.878000000000E+03
     3.600000000000E+00 6.500000000000E+01-8.847564458847E-09-9.778887033463E-09
     2.508660000000E+05
E11 2016 01 05 21 30 00 1.425412483513E-05 1.095656898542E-11 0.000000000000E+00
     3.300000000000E+01-5.546875000000E+01 2.820474626946E-09 2.711326062368E+00
    -2.577900886536E-06 1.342159230262E-04 1.090019941330E-05 5.440622009277E+03
     2.502000000000E+05 6.332993507385E-08-2.692801149748E-01 7.450580596924E-09
     9.680080376260E-01 1.103437500000E+02-5.994021575401E-01-5.351651489194E-09
     4.425184326689E-10 5.130000000000E+02 1.878000000000E+03
     3.600000000000E+00 6.500000000000E+01-8.847564458847E-09-9.778887033463E-09
     2.508870000000E+05
E11 2016 01 05 21 30 00 1.425412483513E-05 1.095656898542E-11 0.000000000000E+00
     3.300000000000E+01-5.546875000000E+01 2.820474626946E-09 2.711326062368E+00
    -2.577900886536E-06 1.342159230262E-04 1.090019941330E-05 5.440622009277E+03
     2.502000000000E+05 6.332993507385E-08-2.692801149748E-01 7.450580596924E-09
     9.680080376260E-01 1.103437500000E+02-5.994021575401E-01-5.351651489194E-09
     4.425184326689E-10 5.130000000000E+02 1.878000000000E+03
     3.600000000000E+00 6.500000000000E+01-8.847564458847E-09-9.778887033463E-09
     2.508960000000E+05
E11 2016 01 05 21 30 00 1.425493974239E-05 1.095656898542E-11 0.000000000000E+00
     3.300000000000E+01-5.546875000000E+01 2.820474626946E-09 2.711326062368E+00
    -2.577900886536E-06 1.342159230262E-04 1.090019941330E-05 5.440622009277E+03
     2.502000000000E+05 6.332993507385E-08-2.692801149748E-01 7.450580596924E-09
     9.680080376260E-01 1.103437500000E+02-5.994021575401E-01-5.351651489194E-09
     4.425184326689E-10 2.580000000000E+02 1.878000000000E+03
     3.600000000000E+00 8.000000000000E+00-8.847564458847E-09 0.000000000000E+00
     2.509400000000E+05
